[{"OBJECT_NAME":"STARLINK-4338","OBJECT_ID":"2022-077N","EPOCH":"2026-03-09T22:24:49.276224","MEAN_MOTION":15.05645383,"ECCENTRICITY":0.00014566,"INCLINATION":97.6023,"RA_OF_ASC_NODE":251.4217,"ARG_OF_PERICENTER":87.4689,"MEAN_ANOMALY":272.6704,"EPHEMERIS_TYPE":0,"CLASSIFICATION_TYPE":"U","NORAD_CAT_ID":53055,"ELEMENT_SET_NO":999,"REV_AT_EPOCH":20101,"BSTAR":1.16739e-7,"MEAN_MOTION_DOT":-5.9e-7,"MEAN_MOTION_DDOT":0},{"OBJECT_NAME":"SL-8 R\/B","OBJECT_ID":"1971-119B","EPOCH":"2026-03-09T17:26:54.866688","MEAN_MOTION":14.37860327,"ECCENTRICITY":0.05486467,"INCLINATION":73.8873,"RA_OF_ASC_NODE":175.649,"ARG_OF_PERICENTER":142.2751,"MEAN_ANOMALY":221.8237,"EPHEMERIS_TYPE":0,"CLASSIFICATION_TYPE":"U","NORAD_CAT_ID":5730,"ELEMENT_SET_NO":999,"REV_AT_EPOCH":65549,"BSTAR":0.00068082483,"MEAN_MOTION_DOT":0.00013069,"MEAN_MOTION_DDOT":0}]
